1  8820U 76039A   25075.58329976 -.00000004  00000-0  00000+0 0  9995
2  8820 109.8618  22.5839 0044341  39.7877 116.3211  6.38665101884325
1  8820U 76039A   25078.55701569  .00000002  00000-0  00000+0 0  9994
2  8820 109.8621  23.6028 0044352  39.1553 113.4710  6.38665104884514
1  8820U 76039A   25080.58999791  .00000002  00000-0  00000+0 0  9996
2  8820 109.8623  24.2995 0044355  38.7154 107.6992  6.38665101884649
1 08820U 76039A   25075.83507219 -.00000003  00000-0  00000-0 0  9991
2 08820 109.8618  22.6702 0044341  39.7336 335.1953  6.38665103883937
1 08820U 76039A   25076.13488456 -.00000002  00000-0  00000-0 0  9995
2 08820 109.8619  22.7729 0044343  39.6710 304.5210  6.38665103883942
1 08820U 76039A   25076.77918779 -.00000001  00000-0  00000-0 0  9990
2 08820 109.8619  22.9937 0044346  39.5347 345.8985  6.38665106883998
1 08820U 76039A   25077.45680958  .00000001  00000-0  00000-0 0  9990
2 08820 109.8620  23.2258 0044349  39.3890 103.8839  6.38665105884039
1 08820U 76039A   25078.55701569  .00000002  00000-0  00000-0 0  9995
2 08820 109.8621  23.6028 0044352  39.1553 113.4710  6.38665104884109
1 08820U 76039A   25079.50867947  .00000002  00000-0  00000-0 0  9994
2 08820 109.8622  23.9289 0044357  38.9556 141.5280  6.38665104884167
1 08820U 76039A   25080.58999791  .00000002  00000-0  00000-0 0  9997
2 08820 109.8623  24.2995 0044355  38.7154 107.6992  6.38665101884234
1 08820U 76039A   25081.38018396  .00000000  00000-0  00000-0 0  9997
2 08820 109.8623  24.5702 0044359  38.5504 124.4873  6.38665099884280
1 08820U 76039A   25081.78969286  .00000000  00000-0  00000-0 0  9994
2 08820 109.8624  24.7106 0044360  38.4621 346.0289  6.38665097884317